OBJECT_NAME,OBJECT_ID,EPOCH,MEAN_MOTION,ECCENTRICITY,INCLINATION,RA_OF_ASC_NODE,ARG_OF_PERICENTER,MEAN_ANOMALY,EPHEMERIS_TYPE,CLASSIFICATION_TYPE,NORAD_CAT_ID,ELEMENT_SET_NO,REV_AT_EPOCH,BSTAR,MEAN_MOTION_DOT,MEAN_MOTION_DDOT
DUBAISAT-1,2009-041B,2026-06-16T06:36:07.357824,14.75121351,.00116728,98.0050,300.5428,76.3423,283.9085,0,U,35682,999,90496,.95786008E-4,.596E-5,0
OCEANSAT-2,2009-051A,2026-06-16T06:29:07.934208,13.99664577,.00151322,98.2324,154.2131,238.7542,121.2142,0,U,35931,999,87920,-.52268939E-4,-.114E-5,0
WORLDVIEW-2 (WV-2),2009-055A,2026-06-16T06:13:13.101024,14.37899216,.00036582,98.4737,240.7215,211.1993,148.8977,0,U,35946,999,87551,.48111435E-4,.102E-5,0
SMOS,2009-059A,2026-06-16T06:51:57.807936,14.39772178,.000132,98.4424,354.6342,89.1306,271.0034,0,U,36036,999,87332,.77571173E-4,.2E-5,0
YAOGAN-7,2009-069A,2026-06-16T06:38:00.503808,14.78009115,.00256261,98.0073,53.1491,44.5254,315.8010,0,U,36110,999,88949,.65308918E-4,.421E-5,0
TANDEM-X,2010-030A,2026-06-15T13:04:49.708992,15.19149123,.0001884,97.4452,174.2763,86.9240,273.2210,0,U,36605,999,88639,.21672042E-4,.388E-5,0
CARTOSAT-2B,2010-035A,2026-06-16T07:47:28.723200,14.78661414,.00111043,97.9954,217.8800,186.4959,173.6110,0,U,36795,999,85972,.96545445E-4,.656E-5,0
YAOGAN-10,2010-038A,2026-06-16T08:09:36.180576,14.85345938,.00016628,97.8972,190.7507,84.4782,333.0058,0,U,36834,999,85708,.1349717E-3,.1107E-4,0
COSMO-SKYMED 4,2010-060A,2026-06-16T07:06:20.866176,14.82152547,.00014389,97.8879,350.9086,81.3153,278.8223,0,U,37216,999,84443,.16058247E-4,.76E-6,0
RESOURCESAT-2,2011-015A,2026-06-16T05:51:57.635712,14.21606229,.0010189,98.7644,234.6928,258.5061,101.4973,0,U,37387,999,78604,.47871355E-4,.61E-6,0
HAIYANG-2A,2011-043A,2026-06-16T07:26:58.351776,13.74405309,.0006065,99.3386,170.0056,93.2240,266.9604,0,U,37781,999,74653,.2619807E-3,.204E-5,0
RASAT,2011-044D,2026-06-16T07:03:41.054688,14.68164845,.00201143,98.0582,258.7044,191.6503,244.4108,0,U,37791,999,79305,.45170276E-4,.211E-5,0
SRMSAT,2011-058D,2026-06-16T02:03:38.583936,14.11575350,.0011815,19.9722,66.1331,191.4739,210.8496,0,U,37841,999,75766,.48744584E-4,.355E-5,0
PLEIADES 1A,2011-076F,2026-06-16T07:23:09.244032,14.58569961,.00016241,98.1982,242.4222,96.2482,353.4093,0,U,38012,999,77186,.22722678E-4,.6E-6,0
ZIYUAN 1-02C (ZY 1-02C),2011-079A,2026-06-16T07:34:12.857376,14.38213990,.00055418,98.4077,234.6419,319.8961,128.5465,0,U,38038,999,75908,.1032764E-3,.271E-5,0
ARIRANG-3 (KOMPSAT-3),2012-025B,2026-06-16T06:43:09.733728,14.62205503,.00066448,98.1170,124.7555,111.5920,248.5990,0,U,38338,999,75121,.8106638E-4,.362E-5,0
EXACTVIEW-1 (ADS-1B),2012-039C,2026-06-16T06:11:12.860736,14.24984320,.00111129,98.9776,284.6270,169.0009,191.1414,0,U,38709,999,72257,.6010523E-4,.94E-6,0
SPOT 6,2012-047A,2026-06-16T07:20:39.472224,14.58562564,.0001511,98.2125,234.6251,92.5949,267.5424,0,U,38755,999,73292,.56191605E-4,.215E-5,0
PLEIADES 1B,2012-068A,2026-06-16T07:47:53.874240,14.58559963,.00016524,98.1953,242.3882,92.5623,267.5765,0,U,39019,999,72072,.42837444E-4,.153E-5,0
GOKTURK 2,2012-073A,2026-06-16T06:24:32.025312,14.75542616,.00016343,97.6813,4.7448,56.1658,303.9707,0,U,39030,999,72437,.76145886E-4,.472E-5,0
LANDSAT 8,2013-008A,2026-06-16T06:27:52.750656,14.57093970,.00013567,98.2302,237.4155,93.6641,266.4713,0,U,39084,999,69776,.69525686E-4,.268E-5,0
SARAL,2013-009A,2026-06-16T06:32:47.751360,14.32855730,.00007513,98.5556,353.8516,315.8240,44.2884,0,U,39086,999,69547,.41986022E-4,.71E-6,0
GAOFEN-1,2013-018A,2026-06-16T07:37:17.788800,14.76536610,.00156879,97.9100,239.4030,269.5127,90.4285,0,U,39150,999,70811,.86306158E-4,.552E-5,0
VNREDSAT 1,2013-021B,2026-06-16T06:27:50.162976,14.64856254,.00017124,97.9082,220.7209,89.4062,270.7338,0,U,39160,999,70015,.99485073E-4,.486E-5,0
ARIRANG-5 (KOMPSAT-5),2013-042A,2026-06-16T04:02:35.294784,15.04487529,.00052806,97.6201,353.8833,122.0593,238.1146,0,U,39227,999,70370,.66252969E-4,.866E-5,0
SKYSAT-A,2013-066C,2026-06-15T20:50:34.644192,15.12970148,.0020185,97.3813,216.3078,322.3608,37.6210,0,U,39418,999,68828,.14884E-3,.2573E-4,0
DUBAISAT-2,2013-066D,2026-06-16T05:01:34.463424,15.10174111,.00124534,97.4557,157.3792,43.8604,316.3612,0,U,39419,999,68624,.10800811E-3,.1703E-4,0
GPM-CORE,2014-009C,2026-06-16T05:43:01.030368,15.44553311,.00119039,64.9726,311.3046,251.1964,108.7885,0,U,39574,999,69766,.20961742E-3,.9569E-4,0
SENTINEL-1A,2014-016A,2026-06-16T06:29:18.475008,14.59199972,.0001427,98.1771,174.8163,82.3689,277.7673,0,U,39634,999,64988,.63457577E-4,.253E-5,0
KAZEOSAT 1,2014-024A,2026-06-16T07:52:06.049920,14.42079294,.0001361,98.3211,239.7962,73.4956,286.6384,0,U,39731,999,63843,.13402881E-4,.1E-7,0
