{
  "version": 1,
  "fetchedAt": "2026-06-16T16:59:36.124Z",
  "source": "celestrak-gp",
  "counts": {
    "station": 25,
    "satellite": 400,
    "debris": 250
  },
  "objects": [
    {
      "id": "35682",
      "name": "DUBAISAT-1",
      "noradId": 35682,
      "line1": "1 35682U 09041B   26167.27508516  .00000596  00000+0  95786-4 0  9992",
      "line2": "2 35682  98.0050 300.5428 0011672  76.3423 283.9085 14.75121351904965",
      "category": "satellite"
    },
    {
      "id": "35931",
      "name": "OCEANSAT-2",
      "noradId": 35931,
      "line1": "1 35931U 09051A   26167.27023072 -.00000114  00000+0 -52269-4 0  9996",
      "line2": "2 35931  98.2324 154.2131 0015132 238.7542 121.2142 13.99664577879207",
      "category": "satellite"
    },
    {
      "id": "35946",
      "name": "WORLDVIEW-2 (WV-2)",
      "noradId": 35946,
      "line1": "1 35946U 09055A   26167.25917941  .00000102  00000+0  48111-4 0  9997",
      "line2": "2 35946  98.4737 240.7215 0003658 211.1993 148.8977 14.37899216875516",
      "category": "satellite"
    },
    {
      "id": "36036",
      "name": "SMOS",
      "noradId": 36036,
      "line1": "1 36036U 09059A   26167.28608574  .00000200  00000+0  77571-4 0  9995",
      "line2": "2 36036  98.4424 354.6342 0001320  89.1306 271.0034 14.39772178873320",
      "category": "satellite"
    },
    {
      "id": "36110",
      "name": "YAOGAN-7",
      "noradId": 36110,
      "line1": "1 36110U 09069A   26167.27639472  .00000421  00000+0  65309-4 0  9990",
      "line2": "2 36110  98.0073  53.1491 0025626  44.5254 315.8010 14.78009115889490",
      "category": "satellite"
    },
    {
      "id": "36605",
      "name": "TANDEM-X",
      "noradId": 36605,
      "line1": "1 36605U 10030A   26166.54501978  .00000388  00000+0  21672-4 0  9994",
      "line2": "2 36605  97.4452 174.2763 0001884  86.9240 273.2210 15.19149123886390",
      "category": "satellite"
    },
    {
      "id": "36795",
      "name": "CARTOSAT-2B",
      "noradId": 36795,
      "line1": "1 36795U 10035A   26167.32463800  .00000656  00000+0  96545-4 0  9996",
      "line2": "2 36795  97.9954 217.8800 0011104 186.4959 173.6110 14.78661414859722",
      "category": "satellite"
    },
    {
      "id": "36834",
      "name": "YAOGAN-10",
      "noradId": 36834,
      "line1": "1 36834U 10038A   26167.34000209  .00001107  00000+0  13497-3 0  9991",
      "line2": "2 36834  97.8972 190.7507 0001662  84.4782 333.0058 14.85345938857085",
      "category": "satellite"
    },
    {
      "id": "37216",
      "name": "COSMO-SKYMED 4",
      "noradId": 37216,
      "line1": "1 37216U 10060A   26167.29607484  .00000076  00000+0  16058-4 0  9994",
      "line2": "2 37216  97.8879 350.9086 0001438  81.3153 278.8223 14.82152547844431",
      "category": "satellite"
    },
    {
      "id": "37387",
      "name": "RESOURCESAT-2",
      "noradId": 37387,
      "line1": "1 37387U 11015A   26167.24441708  .00000061  00000+0  47871-4 0  9995",
      "line2": "2 37387  98.7644 234.6928 0010189 258.5061 101.4973 14.21606229786041",
      "category": "satellite"
    },
    {
      "id": "37781",
      "name": "HAIYANG-2A",
      "noradId": 37781,
      "line1": "1 37781U 11043A   26167.31039759  .00000204  00000+0  26198-3 0  9998",
      "line2": "2 37781  99.3386 170.0056 0006065  93.2240 266.9604 13.74405309746536",
      "category": "satellite"
    },
    {
      "id": "37791",
      "name": "RASAT",
      "noradId": 37791,
      "line1": "1 37791U 11044D   26167.29422517  .00000211  00000+0  45170-4 0  9995",
      "line2": "2 37791  98.0582 258.7044 0020114 191.6503 244.4108 14.68164845793058",
      "category": "satellite"
    },
    {
      "id": "37841",
      "name": "SRMSAT",
      "noradId": 37841,
      "line1": "1 37841U 11058D   26167.08586324  .00000355  00000+0  48745-4 0  9990",
      "line2": "2 37841  19.9722  66.1331 0011815 191.4739 210.8496 14.11575350757668",
      "category": "satellite"
    },
    {
      "id": "38012",
      "name": "PLEIADES 1A",
      "noradId": 38012,
      "line1": "1 38012U 11076F   26167.30774588  .00000060  00000+0  22723-4 0  9998",
      "line2": "2 38012  98.1982 242.4222 0001624  96.2482 353.4093 14.58569961771865",
      "category": "satellite"
    },
    {
      "id": "38038",
      "name": "ZIYUAN 1-02C (ZY 1-02C)",
      "noradId": 38038,
      "line1": "1 38038U 11079A   26167.31542659  .00000271  00000+0  10328-3 0  9993",
      "line2": "2 38038  98.4077 234.6419 0005541 319.8961 128.5465 14.38213990759080",
      "category": "satellite"
    },
    {
      "id": "38338",
      "name": "ARIRANG-3 (KOMPSAT-3)",
      "noradId": 38338,
      "line1": "1 38338U 12025B   26167.27997377  .00000362  00000+0  81066-4 0  9993",
      "line2": "2 38338  98.1170 124.7555 0006644 111.5920 248.5990 14.62205503751212",
      "category": "satellite"
    },
    {
      "id": "38709",
      "name": "EXACTVIEW-1 (ADS-1B)",
      "noradId": 38709,
      "line1": "1 38709U 12039C   26167.25778774  .00000094  00000+0  60105-4 0  9999",
      "line2": "2 38709  98.9776 284.6270 0011112 169.0009 191.1414 14.24984320722576",
      "category": "satellite"
    },
    {
      "id": "38755",
      "name": "SPOT 6",
      "noradId": 38755,
      "line1": "1 38755U 12047A   26167.30601241  .00000215  00000+0  56192-4 0  9995",
      "line2": "2 38755  98.2125 234.6251 0001511  92.5949 267.5424 14.58562564732925",
      "category": "satellite"
    },
    {
      "id": "39019",
      "name": "PLEIADES 1B",
      "noradId": 39019,
      "line1": "1 39019U 12068A   26167.32492910  .00000153  00000+0  42837-4 0  9997",
      "line2": "2 39019  98.1953 242.3882 0001652  92.5623 267.5765 14.58559963720720",
      "category": "satellite"
    },
    {
      "id": "39030",
      "name": "GOKTURK 2",
      "noradId": 39030,
      "line1": "1 39030U 12073A   26167.26703733  .00000472  00000+0  76146-4 0  9991",
      "line2": "2 39030  97.6813   4.7448 0001634  56.1658 303.9707 14.75542616724376",
      "category": "satellite"
    },
    {
      "id": "39084",
      "name": "LANDSAT 8",
      "noradId": 39084,
      "line1": "1 39084U 13008A   26167.26936054  .00000268  00000+0  69526-4 0  9990",
      "line2": "2 39084  98.2302 237.4155 0001356  93.6641 266.4713 14.57093970697760",
      "category": "satellite"
    },
    {
      "id": "39086",
      "name": "SARAL",
      "noradId": 39086,
      "line1": "1 39086U 13009A   26167.27277490  .00000071  00000+0  41986-4 0  9998",
      "line2": "2 39086  98.5556 353.8516 0000751 315.8240  44.2884 14.32855730695472",
      "category": "satellite"
    },
    {
      "id": "39150",
      "name": "GAOFEN-1",
      "noradId": 39150,
      "line1": "1 39150U 13018A   26167.31756700  .00000552  00000+0  86306-4 0  9990",
      "line2": "2 39150  97.9100 239.4030 0015687 269.5127  90.4285 14.76536610708110",
      "category": "satellite"
    },
    {
      "id": "39160",
      "name": "VNREDSAT 1",
      "noradId": 39160,
      "line1": "1 39160U 13021B   26167.26933059  .00000486  00000+0  99485-4 0  9991",
      "line2": "2 39160  97.9082 220.7209 0001712  89.4062 270.7338 14.64856254700156",
      "category": "satellite"
    },
    {
      "id": "39227",
      "name": "ARIRANG-5 (KOMPSAT-5)",
      "noradId": 39227,
      "line1": "1 39227U 13042A   26167.16846406  .00000866  00000+0  66253-4 0  9995",
      "line2": "2 39227  97.6201 353.8833 0005280 122.0593 238.1146 15.04487529703707",
      "category": "satellite"
    },
    {
      "id": "39418",
      "name": "SKYSAT-A",
      "noradId": 39418,
      "line1": "1 39418U 13066C   26166.86845653  .00002573  00000+0  14884-3 0  9991",
      "line2": "2 39418  97.3813 216.3078 0020185 322.3608  37.6210 15.12970148688284",
      "category": "satellite"
    },
    {
      "id": "39419",
      "name": "DUBAISAT-2",
      "noradId": 39419,
      "line1": "1 39419U 13066D   26167.20942666  .00001703  00000+0  10801-3 0  9992",
      "line2": "2 39419  97.4557 157.3792 0012453  43.8604 316.3612 15.10174111686249",
      "category": "satellite"
    },
    {
      "id": "39574",
      "name": "GPM-CORE",
      "noradId": 39574,
      "line1": "1 39574U 14009C   26167.23820637  .00009569  00000+0  20962-3 0  9995",
      "line2": "2 39574  64.9726 311.3046 0011903 251.1964 108.7885 15.44553311697667",
      "category": "satellite"
    },
    {
      "id": "39634",
      "name": "SENTINEL-1A",
      "noradId": 39634,
      "line1": "1 39634U 14016A   26167.27035272  .00000253  00000+0  63458-4 0  9996",
      "line2": "2 39634  98.1771 174.8163 0001427  82.3689 277.7673 14.59199972649880",
      "category": "satellite"
    },
    {
      "id": "39731",
      "name": "KAZEOSAT 1",
      "noradId": 39731,
      "line1": "1 39731U 14024A   26167.32784780  .00000001  00000+0  13403-4 0  9990",
      "line2": "2 39731  98.3211 239.7962 0001361  73.4956 286.6384 14.42079294638435",
      "category": "satellite"
    }
  ]
}